{
  "type": "FeatureCollection",
  "features": [
    {
      "type": "Feature",
      "properties": {
        "norad_id": 33791,
        "name": "COSMOS 2251 DEB",
        "group": "cosmos-2251-debris",
        "lat": 17.92924701296568,
        "lon": 26.508812215575833,
        "alt_km": 768.5718627817314,
        "timestamp": "2025-12-21T14:40:48.311259+00:00",
        "meta_object_name": "COSMOS 2251 DEB",
        "meta_object_id": "1993-036AG",
        "meta_epoch": "2025-12-21T03:12:36.031968",
        "meta_mean_motion": 14.43163644,
        "meta_eccentricity": 0.00302249,
        "meta_inclination": 74.1745,
        "meta_ra_of_asc_node": 22.123,
        "meta_arg_of_pericenter": 217.788,
        "meta_mean_anomaly": 198.9069,
        "meta_ephemeris_type": 0,
        "meta_classification_type": "U",
        "meta_norad_cat_id": 33791,
        "meta_element_set_no": 999,
        "meta_rev_at_epoch": 88173,
        "meta_bstar": 0.00054540979,
        "meta_mean_motion_dot": 1.817e-05,
        "meta_mean_motion_ddot": 0,
        "tle_line1": "1 33791U 93036AG  25355.13375037  .00001817  00000+0  54541-3 0  9991",
        "tle_line2": "2 33791  74.1745  22.1230 0030224 217.7880 198.9069 14.43163644881732"
      },
      "geometry": {
        "type": "Point",
        "coordinates": [
          26.508812215575833,
          17.92924701296568
        ]
      }
    },
    {
      "type": "Feature",
      "properties": {
        "norad_id": 33792,
        "name": "COSMOS 2251 DEB",
        "group": "cosmos-2251-debris",
        "lat": -22.382900658799215,
        "lon": 158.00658038549113,
        "alt_km": 1405.4627577037454,
        "timestamp": "2025-12-21T14:40:48.311269+00:00",
        "meta_object_name": "COSMOS 2251 DEB",
        "meta_object_id": "1993-036AH",
        "meta_epoch": "2025-12-21T01:31:31.861344",
        "meta_mean_motion": 13.45837023,
        "meta_eccentricity": 0.04275658,
        "meta_inclination": 73.9011,
        "meta_ra_of_asc_node": 332.0513,
        "meta_arg_of_pericenter": 35.175,
        "meta_mean_anomaly": 32.4969,
        "meta_ephemeris_type": 0,
        "meta_classification_type": "U",
        "meta_norad_cat_id": 33792,
        "meta_element_set_no": 999,
        "meta_rev_at_epoch": 82554,
        "meta_bstar": 0.00081259828,
        "meta_mean_motion_dot": 8.23e-06,
        "meta_mean_motion_ddot": 0,
        "tle_line1": "1 33792U 93036AH  25355.06356321  .00000823  00000+0  81260-3 0  9993",
        "tle_line2": "2 33792  73.9011 332.0513 0427565  35.1750  32.4969 13.45837023825547"
      },
      "geometry": {
        "type": "Point",
        "coordinates": [
          158.00658038549113,
          -22.382900658799215
        ]
      }
    },
    {
      "type": "Feature",
      "properties": {
        "norad_id": 33793,
        "name": "COSMOS 2251 DEB",
        "group": "cosmos-2251-debris",
        "lat": 46.71220593657285,
        "lon": -63.96517675141436,
        "alt_km": 844.3734017948091,
        "timestamp": "2025-12-21T14:40:48.311279+00:00",
        "meta_object_name": "COSMOS 2251 DEB",
        "meta_object_id": "1993-036AJ",
        "meta_epoch": "2025-12-20T20:16:45.950592",
        "meta_mean_motion": 14.27747188,
        "meta_eccentricity": 0.00788054,
        "meta_inclination": 73.9805,
        "meta_ra_of_asc_node": 135.1862,
        "meta_arg_of_pericenter": 283.6954,
        "meta_mean_anomaly": 228.2782,
        "meta_ephemeris_type": 0,
        "meta_classification_type": "U",
        "meta_norad_cat_id": 33793,
        "meta_element_set_no": 999,
        "meta_rev_at_epoch": 87322,
        "meta_bstar": 0.00049354009,
        "meta_mean_motion_dot": 1.233e-05,
        "meta_mean_motion_ddot": 0,
        "tle_line1": "1 33793U 93036AJ  25354.84497628  .00001233  00000+0  49354-3 0  9999",
        "tle_line2": "2 33793  73.9805 135.1862 0078805 283.6954 228.2782 14.27747188873222"
      },
      "geometry": {
        "type": "Point",
        "coordinates": [
          -63.96517675141436,
          46.71220593657285
        ]
      }
    },
    {
      "type": "Feature",
      "properties": {
        "norad_id": 33795,
        "name": "COSMOS 2251 DEB",
        "group": "cosmos-2251-debris",
        "lat": 41.41367229202041,
        "lon": 73.17138944417096,
        "alt_km": 547.3520537440936,
        "timestamp": "2025-12-21T14:40:48.311290+00:00",
        "meta_object_name": "COSMOS 2251 DEB",
        "meta_object_id": "1993-036AL",
        "meta_epoch": "2025-12-21T06:47:49.012224",
        "meta_mean_motion": 15.05778702,
        "meta_eccentricity": 0.00304633,
        "meta_inclination": 74.0325,
        "meta_ra_of_asc_node": 59.2161,
        "meta_arg_of_pericenter": 139.6705,
        "meta_mean_anomaly": 284.4533,
        "meta_ephemeris_type": 0,
        "meta_classification_type": "U",
        "meta_norad_cat_id": 33795,
        "meta_element_set_no": 999,
        "meta_rev_at_epoch": 90150,
        "meta_bstar": 0.00090054818,
        "meta_mean_motion_dot": 0.0001317,
        "meta_mean_motion_ddot": 0,
        "tle_line1": "1 33795U 93036AL  25355.28320616  .00013170  00000+0  90055-3 0  9999",
        "tle_line2": "2 33795  74.0325  59.2161 0030463 139.6705 284.4533 15.05778702901507"
      },
      "geometry": {
        "type": "Point",
        "coordinates": [
          73.17138944417096,
          41.41367229202041
        ]
      }
    },
    {
      "type": "Feature",
      "properties": {
        "norad_id": 33797,
        "name": "COSMOS 2251 DEB",
        "group": "cosmos-2251-debris",
        "lat": 39.43709825492643,
        "lon": -175.5102960558425,
        "alt_km": 661.6811327398309,
        "timestamp": "2025-12-21T14:40:48.311300+00:00",
        "meta_object_name": "COSMOS 2251 DEB",
        "meta_object_id": "1993-036AN",
        "meta_epoch": "2025-12-21T07:30:57.072384",
        "meta_mean_motion": 14.57875546,
        "meta_eccentricity": 0.00603993,
        "meta_inclination": 74.0465,
        "meta_ra_of_asc_node": 18.6649,
        "meta_arg_of_pericenter": 103.9274,
        "meta_mean_anomaly": 268.1975,
        "meta_ephemeris_type": 0,
        "meta_classification_type": "U",
        "meta_norad_cat_id": 33797,
        "meta_element_set_no": 999,
        "meta_rev_at_epoch": 89110,
        "meta_bstar": 0.00028749742,
        "meta_mean_motion_dot": 1.321e-05,
        "meta_mean_motion_ddot": 0,
        "tle_line1": "1 33797U 93036AN  25355.31316056  .00001321  00000+0  28750-3 0  9996",
        "tle_line2": "2 33797  74.0465  18.6649 0060399 103.9274 268.1975 14.57875546891103"
      },
      "geometry": {
        "type": "Point",
        "coordinates": [
          -175.5102960558425,
          39.43709825492643
        ]
      }
    },
    {
      "type": "Feature",
      "properties": {
        "norad_id": 33798,
        "name": "COSMOS 2251 DEB",
        "group": "cosmos-2251-debris",
        "lat": -42.036039359407475,
        "lon": 104.41818068035691,
        "alt_km": 734.2667588148415,
        "timestamp": "2025-12-21T14:40:48.311311+00:00",
        "meta_object_name": "COSMOS 2251 DEB",
        "meta_object_id": "1993-036AP",
        "meta_epoch": "2025-12-21T02:24:53.092800",
        "meta_mean_motion": 14.44623966,
        "meta_eccentricity": 0.00923968,
        "meta_inclination": 74.0291,
        "meta_ra_of_asc_node": 120.3322,
        "meta_arg_of_pericenter": 239.8929,
        "meta_mean_anomaly": 298.2738,
        "meta_ephemeris_type": 0,
        "meta_classification_type": "U",
        "meta_norad_cat_id": 33798,
        "meta_element_set_no": 999,
        "meta_rev_at_epoch": 88714,
        "meta_bstar": 0.00012798809,
        "meta_mean_motion_dot": 4.37e-06,
        "meta_mean_motion_ddot": 0,
        "tle_line1": "1 33798U 93036AP  25355.10061450  .00000437  00000+0  12799-3 0  9992",
        "tle_line2": "2 33798  74.0291 120.3322 0092396 239.8929 298.2738 14.44623966887141"
      },
      "geometry": {
        "type": "Point",
        "coordinates": [
          104.41818068035691,
          -42.036039359407475
        ]
      }
    },
    {
      "type": "Feature",
      "properties": {
        "norad_id": 33799,
        "name": "COSMOS 2251 DEB",
        "group": "cosmos-2251-debris",
        "lat": -53.846771366338096,
        "lon": -92.61053826877804,
        "alt_km": 640.9838343035872,
        "timestamp": "2025-12-21T14:40:48.311321+00:00",
        "meta_object_name": "COSMOS 2251 DEB",
        "meta_object_id": "1993-036AQ",
        "meta_epoch": "2025-12-21T03:59:57.973344",
        "meta_mean_motion": 14.79717059,
        "meta_eccentricity": 0.00226429,
        "meta_inclination": 74.0321,
        "meta_ra_of_asc_node": 65.1931,
        "meta_arg_of_pericenter": 132.8746,
        "meta_mean_anomaly": 254.2713,
        "meta_ephemeris_type": 0,
        "meta_classification_type": "U",
        "meta_norad_cat_id": 33799,
        "meta_element_set_no": 999,
        "meta_rev_at_epoch": 88936,
        "meta_bstar": 0.00073330155,
        "meta_mean_motion_dot": 5.504e-05,
        "meta_mean_motion_ddot": 0,
        "tle_line1": "1 33799U 93036AQ  25355.16664321  .00005504  00000+0  73330-3 0  9993",
        "tle_line2": "2 33799  74.0321  65.1931 0022642 132.8746 254.2713 14.79717059889360"
      },
      "geometry": {
        "type": "Point",
        "coordinates": [
          -92.61053826877804,
          -53.846771366338096
        ]
      }
    }
  ]
}